K11SC0J 17.0   0.15 K1794  20.03387  181.46866  201.10983   20.92772  0.5302646  0.17314778   3.1880474  1 MPO386828    53   3 2005-2016 0.37 M-v 38h MPCADO     0005          2011 SJ120         20160712
K11SM8N 18.9   0.15 K1794   4.55669  108.99565  225.51111    7.04569  0.5471355  0.16399541   3.3055844  1 MPO423764    59   3 2005-2017 0.30 M-v 38h MPCLINUX   0005          2011 SN228         20171023
K11SM9P 17.1   0.15 K1794  46.58488  122.19196  209.66195   23.65049  0.5106433  0.17613467   3.1519029  2 MPO382694    55   2 2011-2016 0.32 M-v 38h MPCADO     0005          2011 SP229         20160613
K11SO9Q 14.4   0.15 K1794 151.77900  263.66243   44.95536   16.68120  0.4525546  0.05799824   6.6098686  2 MPO210138    43   3 1995-2011 0.29 M-v 38h MPCS       0000          2011 SQ249         20111024
K11T05M 21.0   0.15 K1794 125.65507  152.56281  191.12080   12.72171  0.5030888  0.22087368   2.7104417  8 MPO208041    18   1    2 days 0.51 M-v 38h MPCK       2005          2011 TM5           20111005
K11Ue2R 11.7   0.15 K1794  14.77485  294.53943  221.40077   24.58987  0.7806463  0.01214451  18.7448858  0 MPO413627   234   7 2010-2017 0.27 M-v 38h MPCLINUX   0400          2011 UR402         20170623
K11WB3G 18.3   0.15 K1794 332.65742   66.43298   87.43494    9.83956  0.5730253  0.17351638   3.1835309  6 MPO213831    12   1   11 days 0.16 M-v 38h MPCW       2005          2011 WG113         20111205
K11X03D 18.9   0.15 K1794 325.09996  190.69235  299.79751   23.88563  0.5411720  0.16148635   3.3397362  7 MPO216396    17   1   10 days 0.50 M-v 38h MPCW       2005          2011 XD3           20111225
K11Y15Q 18.6   0.15 K1794 337.22308  303.13879  219.63707    2.30297  0.5824035  0.17404589   3.1770706  6 MPO216404    21   1    3 days 0.40 M-v 38h MPCW       2005          2011 YQ15          20111228
K11Y75U 17.0   0.15 K1794  93.48165  243.44796  295.23097   16.71802  0.7667244  0.04790125   7.5088169  2 MPO230281    56   1  121 days 0.47 M-v 38h MPCADO     2000          2011 YU75          20120425
K12B57D 17.2   0.15 K1794  14.98763  327.19382  124.26043   11.89071  0.5101291  0.17446979   3.1719224  1 MPO386837    23   3 2005-2016 0.47 M-v 38h MPCADO     0005          2012 BD57          20160802
K12B61P 19.4   0.15 K1794 304.76689  134.97572  334.57259    2.85000  0.5422382  0.14659144   3.5622985  4 MPO223031    30   1   43 days 0.21 M-v 38h MPCADO     2005          2012 BP61          20120216
K12BD0Z 15.4   0.15 K1794 111.16884    5.61342  106.82411   14.71785  0.5328475  0.05153676   7.1514040  4 MPO234426    46   1   20 days 0.30 M-v 38h MPCADO     2000          2012 BZ130         20120219
K12D30P 17.9   0.15 K1794 343.34781  246.41358  318.58693   21.72039  0.5050982  0.17668307   3.1453774  3 MPO232611    47   1   83 days 0.57 M-v 38h MPCADO     2005          2012 DP30          20120511
K12D60V 22.7   0.15 K1794  86.42980  166.81293  341.12809   11.45091  0.5102933  0.22037792   2.7145051  8 MPO223145    13   1    1 days 0.33 M-v 38h MPCADO     2005          2012 DV60          20120301
K12D61D 13.3   0.15 K1794  80.90648  323.17702  260.28258   18.55315  0.4974687  0.04819301   7.4784802  2 MPO369154   104   3 2012-2014 0.36 M-v 38h MPCADO     0000          2012 DD61          20140602
K12F10E 17.7   0.15 K1794  12.90992  303.40915  306.06087    4.83038  0.5167032  0.19982773   2.8975585  2 MPO413629   168   4 2002-2017 0.42 M-v 38h MPCLINUX   0005          2012 FE10          20170623
K12H02C 16.9   0.15 K1794 351.68047  169.20750  103.99643   21.67179  0.5023617  0.18636967   3.0354230  1 MPO411540   308   3 2007-2017 0.38 M-v 38h MPCLINUX   0005          2012 HC2           20170521
K12H02D 15.3   0.15 K1794   3.69796  200.21333   21.95639  146.91959  0.9587359  0.00201373  62.1061553  0 MPO271288   104   2 2012-2013 0.31 M-v 38h MPCADO     0011          2012 HD2           20130214
K12K04X 19.7   0.15 K1794  16.91394   77.85476  153.66915    9.08324  0.5334503  0.19314365   2.9640289  1 MPO413631    91   3 2002-2017 0.35 M-v 38h MPCLINUX   0005          2012 KX4           20170615
K12K12V 17.9   0.15 K1794  15.61877  269.40076   68.47329   23.76734  0.5172978  0.21621969   2.7491972  3 MPO415840    26   2 2012-2017 0.52 M-v 38h MPCLINUX   0005          2012 KV12          20170927
K12O05Q 19.1   0.15 K1794 316.67565   80.81177  269.05300   21.24178  0.5354541  0.17672376   3.1448946  6 MPO262438    18   1   13 days 0.19 M-v 38h MPCS       2005          2012 OQ5           20120811
K12Q17M 19.5   0.15 K1794   2.00529  170.13080  243.92902    3.21396  0.5253566  0.20885978   2.8134088  4 MPO248906    22   1  102 days 0.36 M-v 38h MPCADO     2005          2012 QM17          20121205
K12R06P 19.8   0.15 K1794 302.54327  174.19586  193.07700   11.48810  0.5443520  0.16764815   3.2573934  4 MPO245950    59   1   65 days 0.46 M-v 38h MPCADO     2005          2012 RP6           20121116
K12S06H 19.3   0.15 K1794 307.63795  194.20288  188.00538   18.66946  0.5536880  0.17206115   3.2014557  4 MPO245952    54   1   52 days 0.44 M-v 38h MPCADO     2005          2012 SH6           20121107
K12T53A 21.2   0.15 K1794 283.33172  347.23732   21.71055    9.98112  0.5901531  0.15820190   3.3858022  5 MPO245960    35   1   30 days 0.25 M-v 38h MPCADO     2005          2012 TA53          20121107
K12TC4N 19.8   0.15 K1794 285.54448  174.99343  206.42160   14.78908  0.5189897  0.15994135   3.3612092  6 MPO243800    16   1   27 days 0.17 M-v 38h MPCS       2005          2012 TN124         20121107
K12TD9L 14.8   0.15 K1794  10.95400  273.98139  308.19242  160.03616  0.8809103  0.00612880  29.5723436  3 MPO245966    36   1   25 days 0.21 M-v 38h MPCADO     2000          2012 TL139         20121103
K12U27U 18.3   0.15 K1794 187.24854   41.43699   22.56805   54.60938  0.6348186  0.10792073   4.3691753  5 MPO245985    77   1   29 days 0.50 M-v 38h MPCADO     2005          2012 UU27          20121114
K12U34P 18.0   0.15 K1794 329.03175   89.93891  261.25148   21.11058  0.5467581  0.17834465   3.1258106  4 MPO248920    31   1   50 days 0.36 M-v 38h MPCADO     2005          2012 UP34          20121206
K12UD8N 15.5   0.15 K1794  53.76328   21.40511   26.22014   15.92929  0.6566972  0.03084843  10.0688689  4 MPO245999    22   1   31 days 0.51 M-v 38h MPCADO     2000          2012 UN138         20121119
K12UF8T 19.7   0.15 K1794 332.73310    7.99990   28.99947   16.22941  0.5218885  0.18648104   3.0342144  4 MPO246001    50   1   34 days 0.33 M-v 38h MPCADO     2005          2012 UT158         20121125
K12V26J 19.1   0.15 K1794 238.76934  159.25851  250.79440    9.56297  0.5046360  0.13718692   3.7232962  5 MPO244127    15   1   21 days 0.38 M-v 38h MPCS       2000          2012 VJ26          20121107
K12W04H 17.4   0.15 K1794 291.84955  233.32602  177.47941   40.19128  0.5670216  0.17420586   3.1751254  7 MPO248937    30   1   23 days 0.35 M-v 38h MPCADO     2005          2012 WH4           20121210
K12W04J 17.9   0.15 K1794 302.55927  164.11290  248.79006   16.48998  0.5867881  0.17482497   3.1676249  5 MPO252134    67   1   50 days 0.41 M-v 38h MPCADO     2005          2012 WJ4           20130107
K12X55E 19.8   0.15 K1794 274.52653   17.90564   80.05865   30.47290  0.6019138  0.16116129   3.3442255  6 MPO247319    82   1   15 days 0.36 M-v 38h MPCADO     2005          2012 XE55          20121221
K12XE4O 15.8   0.15 K1794 153.00981  144.51699  317.59535   16.27423  0.5101514  0.09220028   4.8526753  0 MPO265027    54   3 2003-2013 0.37 M-v 38h MPCADO     0000          2012 XO144         20130503
K12XE5K 19.8   0.15 K1794 270.50184  182.40481  291.22227    9.34916  0.6062795  0.15918212   3.3718885  3 MPO258434   101   1   82 days 0.26 M-v 38h MPCADO     2005          2012 XK145         20130304
K12Y03M 20.2   0.15 K1794  12.61774  340.10729   70.08515    3.55383  0.5299679  0.21059192   2.7979605  6 MPO247367    23   1   31 days 0.28 M-v 38h MPCS       2005          2012 YM3           20121223
K12Y03N 20.1   0.15 K1794 270.08260    4.07286   84.47787   15.56735  0.6077821  0.15645983   3.4108881  6 MPO254826    49   1   27 days 0.37 M-v 38h MPCADO     2005          2012 YN3           20130116
K12Y06O 14.7   0.15 K1794 115.62786  145.97587  260.70309  106.89875  0.4777178  0.06205711   6.3184182  3 MPO260830    47   1  142 days 0.29 M-v 38h MPCADO     2000          2012 YO6           20130306
K12Y08E 15.0   0.15 K1794  51.18743   35.07013  135.35960  136.09208  0.5893538  0.03456546   9.3334270  5 MPO254826    26   1   41 days 0.43 M-v 38h MPCADO     2000          2012 YE8           20130131
K13B19D 16.9   0.15 K1794 285.50090   68.88097  125.56721   23.30969  0.5052863  0.17741667   3.1367008  2 MPO265048   165   1  159 days 0.34 M-v 38h MPCADO     2005          2013 BD19          20130616
K13B27N 17.1   0.15 K1794   3.33241  300.55092  128.15667  101.81728  0.9759504  0.00186916  65.2686591    MPO254839    56   1   25 days 0.53 M-v 38h MPCADO     2011          2013 BN27          20130211
K13C36D 20.0   0.15 K1794 327.17488  352.80129  173.40010    6.59070  0.5207101  0.20073685   2.8888034  4 MPO260834    51   1   59 days 0.34 M-v 38h MPCADO     2005          2013 CD36          20130407
K13C77M 15.9   0.15 K1794  80.95127  189.28300  319.19788    8.88656  0.5948008  0.04922433   7.3736551  3 MPO258452    22   1   51 days 0.38 M-v 38h MPCADO     2000          2013 CM77          20130314
K13E05C 17.7   0.15 K1794 303.40904  307.74092  184.33467   25.32519  0.5100816  0.18163411   3.0879561  1 MPO423782    65   3 2006-2017 0.37 M-v 38h MPCLINUX   0005          2013 EC5           20171025
K13E27X 18.4   0.15 K1794 271.57302  315.93923  195.76663   27.73625  0.5536951  0.16555231   3.2848273  5 MPO262799    18   1   68 days 0.22 M-v 38h MPCS       2005          2013 EX27          20130513
K13E89G 20.5   0.15 K1794 312.24040  357.18511  196.48406   10.27578  0.5480549  0.19365153   2.9588442  4 MPO265051    58   1   64 days 0.33 M-v 38h MPCADO     2005          2013 EG89          20130516
